ORBCOMM FM20 [+]        
1 25416U 98046D   23252.67581274  .00001030  00000+0  41271-3 0  9990
2 25416  44.9969 355.4848 0002030 216.8494 143.2213 14.34364549311393
ORBCOMM FM16 [-]        
1 25417U 98046E   23253.39941337  .00001439  00000+0  54957-3 0  9999
2 25417  44.9969 349.3631 0004735 270.6037  89.4268 14.35024415311590
ORBCOMM FM15 [-]        
1 25418U 98046F   23252.68638097  .00001350  00000+0  52105-3 0  9992
2 25418  45.0001 356.2524 0004113 267.8948  92.1428 14.34788916311453
ORBCOMM FM14 [-]        
1 25419U 98046G   23252.40526788  .00001381  00000+0  53073-3 0  9995
2 25419  44.9991 356.9539 0003448 248.8748 215.3526 14.34886209311193
ORBCOMM FM13 [+]        
1 25420U 98046H   23252.74439874  .00001224  00000+0  48065-3 0  9994
2 25420  45.0003 359.0575 0005480 259.8994 100.1234 14.34378287311456
ORBCOMM FM21 [-]        
1 25475U 98053A   23252.97164969  .00001205  00000+0  47403-3 0  9991
2 25475  45.0091  82.0650 0000464 171.3092 188.7763 14.34401331304700
ORBCOMM FM22 [-]        
1 25476U 98053B   23253.23102153  .00001290  00000+0  50065-3 0  9991
2 25476  45.0087  78.9378 0002107 208.9949 151.0781 14.34745826304759
ORBCOMM FM23 [-]        
1 25477U 98053C   23253.20968107  .00001183  00000+0  46652-3 0  9996
2 25477  45.0093  83.3781 0001383 203.5246 156.5538 14.34376248304861
